start=new Date('2023-03-20T00:00:00.000Z').valueOf();
sats=[{"TIME_SYSTEM":"UTC","OBJECT_ID":"2020-062A","MEAN_ANOMALY":"277.3315","REV_AT_EPOCH":"14184","GP_ID":"228440003","REF_FRAME":"TEME","EPHEMERIS_TYPE":"0","PERIOD":"95.587","CLASSIFICATION_TYPE":"U","RCS_SIZE":"LARGE","OBJECT_NAME":"STARLINK-1734","NORAD_CAT_ID":"46325","MEAN_MOTION_DOT":"0.00024817","SEMIMAJOR_AXIS":"6925.099","ECCENTRICITY":"0.00013620","COUNTRY_CODE":"US","SITE":"AFETR","ELEMENT_SET_NO":"999","FILE":"3865049","APOAPSIS":"547.907","EPOCH":"2023-03-19T13:17:48.100416","ARG_OF_PERICENTER":"82.7829","DECAY_DATE":null,"LAUNCH_DATE":"2020-09-03","MEAN_ELEMENT_THEORY":"SGP4","TLE_LINE1":"1 46325U 20062A   23078.55402894  .00024817  00000-0  16754-2 0  9994","BSTAR":"0.00167540000000","MEAN_MOTION_DDOT":"0.0000000000000","RA_OF_ASC_NODE":"167.4728","INCLINATION":"53.0535","PERIAPSIS":"546.021","CENTER_NAME":"EARTH","MEAN_MOTION":"15.06481408","TLE_LINE2":"2 46325  53.0535 167.4728 0001362  82.7829 277.3315 15.06481408141849","OBJECT_TYPE":"PAYLOAD"},{"OBJECT_ID":"2020-062B","MEAN_ANOMALY":"260.7607","TIME_SYSTEM":"UTC","REF_FRAME":"TEME","REV_AT_EPOCH":"14062","GP_ID":"228473431","ECCENTRICITY":"0.00009710","COUNTRY_CODE":"US","SITE":"AFETR","CLASSIFICATION_TYPE":"U","RCS_SIZE":"LARGE","EPHEMERIS_TYPE":"0","PERIOD":"95.593","SEMIMAJOR_AXIS":"6925.393","OBJECT_NAME":"STARLINK-1654","NORAD_CAT_ID":"46326","MEAN_MOTION_DOT":"0.00024201","EPOCH":"2023-03-19T16:25:37.446816","ARG_OF_PERICENTER":"99.3491","DECAY_DATE":null,"MEAN_ELEMENT_THEORY":"SGP4","LAUNCH_DATE":"2020-09-03","ELEMENT_SET_NO":"999","APOAPSIS":"547.931","FILE":"3865354","MEAN_MOTION":"15.06385361","TLE_LINE2":"2 46326  53.0537 212.1217 0000971  99.3491 260.7607 15.06385361140623","OBJECT_TYPE":"PAYLOAD","MEAN_MOTION_DDOT":"0.0000000000000","BSTAR":"0.00163870000000","TLE_LINE1":"1 46326U 20062B   23078.68446119  .00024201  00000-0  16387-2 0  9996","INCLINATION":"53.0537","CENTER_NAME":"EARTH","PERIAPSIS":"546.586","RA_OF_ASC_NODE":"212.1217"},{"TIME_SYSTEM":"UTC","MEAN_ANOMALY":"271.0621","OBJECT_ID":"2020-062C","GP_ID":"228473681","REV_AT_EPOCH":"14063","REF_FRAME":"TEME","PERIOD":"95.593","EPHEMERIS_TYPE":"0","RCS_SIZE":"LARGE","CLASSIFICATION_TYPE":"U","OBJECT_NAME":"STARLINK-1673","MEAN_MOTION_DOT":"0.00028685","NORAD_CAT_ID":"46327","SEMIMAJOR_AXIS":"6925.372","ECCENTRICITY":"0.00015230","SITE":"AFETR","COUNTRY_CODE":"US","ELEMENT_SET_NO":"999","FILE":"3865354","APOAPSIS":"548.292","ARG_OF_PERICENTER":"89.0543","DECAY_DATE":null,"EPOCH":"2023-03-19T18:32:58.403616","LAUNCH_DATE":"2020-09-03","MEAN_ELEMENT_THEORY":"SGP4","TLE_LINE1":"1 46327U 20062C   23078.77289819  .00028685  00000-0  19372-2 0  9996","MEAN_MOTION_DDOT":"0.0000000000000","BSTAR":"0.00193720000000","RA_OF_ASC_NODE":"211.4823","CENTER_NAME":"EARTH","PERIAPSIS":"546.182","INCLINATION":"53.0542","MEAN_MOTION":"15.06392313","TLE_LINE2":"2 46327  53.0542 211.4823 0001523  89.0543 271.0621 15.06392313140630","OBJECT_TYPE":"PAYLOAD"},{"ECCENTRICITY":"0.00015670","COUNTRY_CODE":"US","SITE":"AFETR","EPHEMERIS_TYPE":"0","PERIOD":"95.594","CLASSIFICATION_TYPE":"U","RCS_SIZE":"LARGE","OBJECT_NAME":"STARLINK-1686","NORAD_CAT_ID":"46328","MEAN_MOTION_DOT":"0.00008447","SEMIMAJOR_AXIS":"6925.431","TIME_SYSTEM":"UTC","OBJECT_ID":"2020-062D","MEAN_ANOMALY":"274.3777","GP_ID":"228474432","REV_AT_EPOCH":"14091","REF_FRAME":"TEME","MEAN_MOTION":"15.06373009","OBJECT_TYPE":"PAYLOAD","TLE_LINE2":"2 46328  53.0543 191.5778 0001567  85.7391 274.3777 15.06373009140911","TLE_LINE1":"1 46328U 20062D   23078.75259984  .00008447  00000-0  58572-3 0  9995","MEAN_MOTION_DDOT":"0.0000000000000","BSTAR":"0.00058572000000","RA_OF_ASC_NODE":"191.5778","INCLINATION":"53.0543","PERIAPSIS":"546.211","CENTER_NAME":"EARTH","EPOCH":"2023-03-19T18:03:44.626176","DECAY_DATE":null,"ARG_OF_PERICENTER":"85.7391","MEAN_ELEMENT_THEORY":"SGP4","LAUNCH_DATE":"2020-09-03","ELEMENT_SET_NO":"999","FILE":"3865354","APOAPSIS":"548.381"},{"MEAN_ANOMALY":"265.6666","OBJECT_ID":"2020-062E","TIME_SYSTEM":"UTC","REF_FRAME":"TEME","REV_AT_EPOCH":"14090","GP_ID":"228474180","RCS_SIZE":"LARGE","CLASSIFICATION_TYPE":"U","PERIOD":"95.590","EPHEMERIS_TYPE":"0","SEMIMAJOR_AXIS":"6925.222","OBJECT_NAME":"STARLINK-1695","MEAN_MOTION_DOT":"0.00023534","NORAD_CAT_ID":"46329","ECCENTRICITY":"0.00015030","SITE":"AFETR","COUNTRY_CODE":"US","ELEMENT_SET_NO":"999","APOAPSIS":"548.127","FILE":"3865354","DECAY_DATE":null,"ARG_OF_PERICENTER":"94.4495","EPOCH":"2023-03-19T17:15:59.344704","MEAN_ELEMENT_THEORY":"SGP4","LAUNCH_DATE":"2020-09-03","BSTAR":"0.00159180000000","MEAN_MOTION_DDOT":"0.0000000000000","TLE_LINE1":"1 46329U 20062E   23078.71943686  .00023534  00000-0  15918-2 0  9991","CENTER_NAME":"EARTH","PERIAPSIS":"546.046","INCLINATION":"53.0533","RA_OF_ASC_NODE":"191.7262","MEAN_MOTION":"15.06441438","TLE_LINE2":"2 46329  53.0533 191.7262 0001503  94.4495 265.6666 15.06441438140904","OBJECT_TYPE":"PAYLOAD"},{"OBJECT_ID":"2020-062F","MEAN_ANOMALY":"277.7519","TIME_SYSTEM":"UTC","REF_FRAME":"TEME","REV_AT_EPOCH":"14092","GP_ID":"228472932","CLASSIFICATION_TYPE":"U","RCS_SIZE":"LARGE","EPHEMERIS_TYPE":"0","PERIOD":"95.593","SEMIMAJOR_AXIS":"6925.409","NORAD_CAT_ID":"46330","OBJECT_NAME":"STARLINK-1710","MEAN_MOTION_DOT":"0.00004276","ECCENTRICITY":"0.00014880","COUNTRY_CODE":"US","SITE":"AFETR","ELEMENT_SET_NO":"999","APOAPSIS":"548.304","FILE":"3865354","EPOCH":"2023-03-19T18:35:37.419360","DECAY_DATE":null,"ARG_OF_PERICENTER":"82.3639","LAUNCH_DATE":"2020-09-03","MEAN_ELEMENT_THEORY":"SGP4","BSTAR":"0.00030597000000","MEAN_MOTION_DDOT":"0.0000000000000","TLE_LINE1":"1 46330U 20062F   23078.77473865  .00004276  00000-0  30597-3 0  9999","INCLINATION":"53.0529","CENTER_NAME":"EARTH","PERIAPSIS":"546.243","RA_OF_ASC_NODE":"191.4783","MEAN_MOTION":"15.06380413","OBJECT_TYPE":"PAYLOAD","TLE_LINE2":"2 46330  53.0529 191.4783 0001488  82.3639 277.7519 15.06380413140922"},{"BSTAR":"0.00185550000000","MEAN_MOTION_DDOT":"0.0000000000000","TLE_LINE1":"1 46331U 20062G   23078.67705752  .00027459  00000-0  18555-2 0  9999","INCLINATION":"53.0540","PERIAPSIS":"546.363","CENTER_NAME":"EARTH","RA_OF_ASC_NODE":"211.9175","MEAN_MOTION":"15.06393436","OBJECT_TYPE":"PAYLOAD","TLE_LINE2":"2 46331  53.0540 211.9175 0001257  76.4360 283.6768 15.06393436140626","ELEMENT_SET_NO":"999","APOAPSIS":"548.104","FILE":"3865354","EPOCH":"2023-03-19T16:14:57.769728","DECAY_DATE":null,"ARG_OF_PERICENTER":"76.4360","LAUNCH_DATE":"2020-09-03","MEAN_ELEMENT_THEORY":"SGP4","CLASSIFICATION_TYPE":"U","RCS_SIZE":"LARGE","EPHEMERIS_TYPE":"0","PERIOD":"95.593","SEMIMAJOR_AXIS":"6925.369","MEAN_MOTION_DOT":"0.00027459","OBJECT_NAME":"STARLINK-1719","NORAD_CAT_ID":"46331","ECCENTRICITY":"0.00012570","COUNTRY_CODE":"US","SITE":"AFETR","OBJECT_ID":"2020-062G","MEAN_ANOMALY":"283.6768","TIME_SYSTEM":"UTC","REF_FRAME":"TEME","GP_ID":"228473182","REV_AT_EPOCH":"14062"},{"MEAN_MOTION":"15.11891073","OBJECT_TYPE":"PAYLOAD","TLE_LINE2":"2 46332  53.0518 210.1806 0002287 260.4039  99.6694 15.11891073140658","TLE_LINE1":"1 46332U 20062H   23078.75479807  .00042007  00000-0  24288-2 0  9994","MEAN_MOTION_DDOT":"0.0000000000000","BSTAR":"0.00242880000000","RA_OF_ASC_NODE":"210.1806","INCLINATION":"53.0518","CENTER_NAME":"EARTH","PERIAPSIS":"528.855","EPOCH":"2023-03-19T18:06:54.553248","DECAY_DATE":null,"ARG_OF_PERICENTER":"260.4039","MEAN_ELEMENT_THEORY":"SGP4","LAUNCH_DATE":"2020-09-03","ELEMENT_SET_NO":"999","FILE":"3865354","APOAPSIS":"532.015","ECCENTRICITY":"0.00022870","COUNTRY_CODE":"US","SITE":"AFETR","EPHEMERIS_TYPE":"0","PERIOD":"95.245","CLASSIFICATION_TYPE":"U","RCS_SIZE":"LARGE","NORAD_CAT_ID":"46332","OBJECT_NAME":"STARLINK-1721","MEAN_MOTION_DOT":"0.00042007","SEMIMAJOR_AXIS":"6908.570","TIME_SYSTEM":"UTC","OBJECT_ID":"2020-062H","MEAN_ANOMALY":"99.6694","GP_ID":"228473933","REV_AT_EPOCH":"14065","REF_FRAME":"TEME"},{"SITE":"AFETR","COUNTRY_CODE":"US","ECCENTRICITY":"0.00011830","OBJECT_NAME":"STARLINK-1723","MEAN_MOTION_DOT":"0.00013414","NORAD_CAT_ID":"46333","SEMIMAJOR_AXIS":"6925.306","PERIOD":"95.591","EPHEMERIS_TYPE":"0","RCS_SIZE":"LARGE","CLASSIFICATION_TYPE":"U","GP_ID":"228474681","REV_AT_EPOCH":"14064","REF_FRAME":"TEME","TIME_SYSTEM":"UTC","MEAN_ANOMALY":"256.6532","OBJECT_ID":"2020-062J","OBJECT_TYPE":"PAYLOAD","TLE_LINE2":"2 46333  53.0537 211.2022 0001183 103.4589 256.6532 15.06414014140647","MEAN_MOTION":"15.06414014","RA_OF_ASC_NODE":"211.2022","CENTER_NAME":"EARTH","PERIAPSIS":"546.351","INCLINATION":"53.0537","TLE_LINE1":"1 46333U 20062J   23078.83554291  .00013414  00000-0  91736-3 0  9998","BSTAR":"0.00091736000000","MEAN_MOTION_DDOT":"0.0000000000000","LAUNCH_DATE":"2020-09-03","MEAN_ELEMENT_THEORY":"SGP4","DECAY_DATE":null,"ARG_OF_PERICENTER":"103.4589","EPOCH":"2023-03-19T20:03:10.907424","FILE":"3865354","APOAPSIS":"547.990","ELEMENT_SET_NO":"999"},{"BSTAR":"0.00020354000000","MEAN_MOTION_DDOT":"0.0000000000000","TLE_LINE1":"1 46334U 20062K   23078.63840289  .00002751  00000-0  20354-3 0  9992","CENTER_NAME":"EARTH","PERIAPSIS":"546.486","INCLINATION":"53.0548","RA_OF_ASC_NODE":"192.3711","MEAN_MOTION":"15.06391287","TLE_LINE2":"2 46334  53.0548 192.3711 0001089  84.5254 275.5859 15.06391287140892","OBJECT_TYPE":"PAYLOAD","ELEMENT_SET_NO":"999","APOAPSIS":"547.994","FILE":"3865354","ARG_OF_PERICENTER":"84.5254","DECAY_DATE":null,"EPOCH":"2023-03-19T15:19:18.009696","MEAN_ELEMENT_THEORY":"SGP4","LAUNCH_DATE":"2020-09-03","RCS_SIZE":"LARGE","CLASSIFICATION_TYPE":"U","PERIOD":"95.593","EPHEMERIS_TYPE":"0","SEMIMAJOR_AXIS":"6925.375","OBJECT_NAME":"STARLINK-1725","MEAN_MOTION_DOT":"0.00002751","NORAD_CAT_ID":"46334","ECCENTRICITY":"0.00010890","SITE":"AFETR","COUNTRY_CODE":"US","MEAN_ANOMALY":"275.5859","OBJECT_ID":"2020-062K","TIME_SYSTEM":"UTC","REF_FRAME":"TEME","REV_AT_EPOCH":"14089","GP_ID":"228473432"}];
